[{"OBJECT_NAME":"STARLINK-30478","OBJECT_ID":"2023-146W","EPOCH":"2026-03-09T22:00:01.999584","MEAN_MOTION":15.05945063,"ECCENTRICITY":0.00013264,"INCLINATION":42.9997,"RA_OF_ASC_NODE":311.5054,"ARG_OF_PERICENTER":285.7723,"MEAN_ANOMALY":206.7337,"EPHEMERIS_TYPE":0,"CLASSIFICATION_TYPE":"U","NORAD_CAT_ID":57911,"ELEMENT_SET_NO":999,"REV_AT_EPOCH":552,"BSTAR":0.11273641,"MEAN_MOTION_DOT":0.01842676,"MEAN_MOTION_DDOT":0},{"OBJECT_NAME":"SL-3 R\/B","OBJECT_ID":"1981-065B","EPOCH":"2026-03-09T21:58:16.284000","MEAN_MOTION":15.33300883,"ECCENTRICITY":0.00117648,"INCLINATION":97.6337,"RA_OF_ASC_NODE":111.1786,"ARG_OF_PERICENTER":10.529,"MEAN_ANOMALY":349.6196,"EPHEMERIS_TYPE":0,"CLASSIFICATION_TYPE":"U","NORAD_CAT_ID":12586,"ELEMENT_SET_NO":999,"REV_AT_EPOCH":43499,"BSTAR":0.00030084921,"MEAN_MOTION_DOT":9.62e-5,"MEAN_MOTION_DDOT":0}]
